{"type": "FeatureCollection", "features": [ {"type": "Feature", "properties": {"norad_id": 31736, "name": "FENGYUN 1C DEB", "group": "fengyun-1c-debris", "lat": 80.77139655106208, "lon": -123.72331673543742, "alt_km": 844.91809304853, "timestamp": "2025-12-10T05:46:14.106906+00:00", "meta": {"OBJECT_NAME": "FENGYUN 1C DEB", "OBJECT_ID": "1999-025CEK", "EPOCH": "2025-12-07T06:00:46.728576", "MEAN_MOTION": 14.14178475, "ECCENTRICITY": 0.00109922, "INCLINATION": 98.6782, "RA_OF_ASC_NODE": 343.321, "ARG_OF_PERICENTER": 257.8319, "MEAN_ANOMALY": 102.1623, "EPHEMERIS_TYPE": 0, "CLASSIFICATION_TYPE": "U", "NORAD_CAT_ID": 31736, "ELEMENT_SET_NO": 999, "REV_AT_EPOCH": 63987, "BSTAR": 0.00026653832, "MEAN_MOTION_DOT": 4.65e-06, "MEAN_MOTION_DDOT": 0}, "tle": {"line1": "1 31736U 99025CEK 25341.25054084  .00000465  00000+0  26654-3 0  9998", "line2": "2 31736  98.6782 343.3210 0010992 257.8319 102.1623 14.14178475639874"}}, "geometry": {"type": "Point", "coordinates": [-123.72331673543742, 80.77139655106208]}}, {"type": "Feature", "properties": {"norad_id": 31737, "name": "FENGYUN 1C DEB", "group": "fengyun-1c-debris", "lat": -61.65442828190044, "lon": -177.11635596983453, "alt_km": 753.3998165087214, "timestamp": "2025-12-10T05:46:14.106916+00:00", "meta": {"OBJECT_NAME": "FENGYUN 1C DEB", "OBJECT_ID": "1999-025CEL", "EPOCH": "2025-12-09T09:05:57.928416", "MEAN_MOTION": 14.68701198, "ECCENTRICITY": 0.014913, "INCLINATION": 97.9175, "RA_OF_ASC_NODE": 16.9987, "ARG_OF_PERICENTER": 26.4033, "MEAN_ANOMALY": 346.082, "EPHEMERIS_TYPE": 0, "CLASSIFICATION_TYPE": "U", "NORAD_CAT_ID": 31737, "ELEMENT_SET_NO": 999, "REV_AT_EPOCH": 98150, "BSTAR": 0.00084960801, "MEAN_MOTION_DOT": 5.81e-05, "MEAN_MOTION_DDOT": 0}, "tle": {"line1": "1 31737U 99025CEL 25343.37914269  .00005810  00000+0  84961-3 0  9998", "line2": "2 31737  97.9175  16.9987 0149130  26.4033 346.0820 14.68701198981508"}}, "geometry": {"type": "Point", "coordinates": [-177.11635596983453, -61.65442828190044]}}, {"type": "Feature", "properties": {"norad_id": 31738, "name": "FENGYUN 1C DEB", "group": "fengyun-1c-debris", "lat": -51.11401380778583, "lon": 63.289278528891, "alt_km": 1162.0186529538269, "timestamp": "2025-12-10T05:46:14.106925+00:00", "meta": {"OBJECT_NAME": "FENGYUN 1C DEB", "OBJECT_ID": "1999-025CEM", "EPOCH": "2025-11-17T10:08:15.850752", "MEAN_MOTION": 13.84884182, "ECCENTRICITY": 0.03082109, "INCLINATION": 99.3633, "RA_OF_ASC_NODE": 28.6808, "ARG_OF_PERICENTER": 167.6176, "MEAN_ANOMALY": 193.2777, "EPHEMERIS_TYPE": 0, "CLASSIFICATION_TYPE": "U", "NORAD_CAT_ID": 31738, "ELEMENT_SET_NO": 999, "REV_AT_EPOCH": 61907, "BSTAR": 0.0026324864, "MEAN_MOTION_DOT": 4.259e-05, "MEAN_MOTION_DDOT": 0}, "tle": {"line1": "1 31738U 99025CEM 25321.42240568  .00004259  00000+0  26325-2 0  9990", "line2": "2 31738  99.3633  28.6808 0308210 167.6176 193.2777 13.84884182619073"}}, "geometry": {"type": "Point", "coordinates": [63.289278528891, -51.11401380778583]}}, {"type": "Feature", "properties": {"norad_id": 31739, "name": "FENGYUN 1C DEB", "group": "fengyun-1c-debris", "lat": -77.87473518106404, "lon": 85.38529968670348, "alt_km": 925.4601478432805, "timestamp": "2025-12-10T05:46:14.106936+00:00", "meta": {"OBJECT_NAME": "FENGYUN 1C DEB", "OBJECT_ID": "1999-025CEN", "EPOCH": "2025-12-09T14:55:53.584608", "MEAN_MOTION": 14.19215708, "ECCENTRICITY": 0.0128492, "INCLINATION": 98.7479, "RA_OF_ASC_NODE": 38.9931, "ARG_OF_PERICENTER": 87.1219, "MEAN_ANOMALY": 274.4654, "EPHEMERIS_TYPE": 0, "CLASSIFICATION_TYPE": "U", "NORAD_CAT_ID": 31739, "ELEMENT_SET_NO": 999, "REV_AT_EPOCH": 95442, "BSTAR": 0.00016594, "MEAN_MOTION_DOT": 3.35e-06, "MEAN_MOTION_DDOT": 0}, "tle": {"line1": "1 31739U 99025CEN 25343.62214797  .00000335  00000+0  16594-3 0  9991", "line2": "2 31739  98.7479  38.9931 0128492  87.1219 274.4654 14.19215708954420"}}, "geometry": {"type": "Point", "coordinates": [85.38529968670348, -77.87473518106404]}}, {"type": "Feature", "properties": {"norad_id": 31740, "name": "FENGYUN 1C DEB", "group": "fengyun-1c-debris", "lat": 26.49865579020328, "lon": 150.24966461240214, "alt_km": 739.0009665835005, "timestamp": "2025-12-10T05:46:14.106945+00:00", "meta": {"OBJECT_NAME": "FENGYUN 1C DEB", "OBJECT_ID": "1999-025CEP", "EPOCH": "2025-12-07T23:23:54.081600", "MEAN_MOTION": 14.42100668, "ECCENTRICITY": 0.00243063, "INCLINATION": 99.8211, "RA_OF_ASC_NODE": 152.6005, "ARG_OF_PERICENTER": 82.3936, "MEAN_ANOMALY": 69.7261, "EPHEMERIS_TYPE": 0, "CLASSIFICATION_TYPE": "U", "NORAD_CAT_ID": 31740, "ELEMENT_SET_NO": 999, "REV_AT_EPOCH": 65006, "BSTAR": 0.0018306589, "MEAN_MOTION_DOT": 5.989e-05, "MEAN_MOTION_DDOT": 0}, "tle": {"line1": "1 31740U 99025CEP 25341.97493150  .00005989  00000+0  18307-2 0  9994", "line2": "2 31740  99.8211 152.6005 0024306  82.3936  69.7261 14.42100668650062"}}, "geometry": {"type": "Point", "coordinates": [150.24966461240214, 26.49865579020328]}}, {"type": "Feature", "properties": {"norad_id": 31742, "name": "FENGYUN 1C DEB", "group": "fengyun-1c-debris", "lat": 28.30806113540737, "lon": 28.797126720893246, "alt_km": 812.4681815673257, "timestamp": "2025-12-10T05:46:14.106955+00:00", "meta": {"OBJECT_NAME": "FENGYUN 1C DEB", "OBJECT_ID": "1999-025CER", "EPOCH": "2025-12-08T21:22:47.349120", "MEAN_MOTION": 14.39767074, "ECCENTRICITY": 0.0076746, "INCLINATION": 98.9195, "RA_OF_ASC_NODE": 202.5402, "ARG_OF_PERICENTER": 340.6654, "MEAN_ANOMALY": 19.1625, "EPHEMERIS_TYPE": 0, "CLASSIFICATION_TYPE": "U", "NORAD_CAT_ID": 31742, "ELEMENT_SET_NO": 999, "REV_AT_EPOCH": 96594, "BSTAR": 0.00089179, "MEAN_MOTION_DOT": 2.845e-05, "MEAN_MOTION_DDOT": 0}, "tle": {"line1": "1 31742U 99025CER 25342.89082580  .00002845  00000+0  89179-3 0  9993", "line2": "2 31742  98.9195 202.5402 0076746 340.6654  19.1625 14.39767074965948"}}, "geometry": {"type": "Point", "coordinates": [28.797126720893246, 28.30806113540737]}}, {"type": "Feature", "properties": {"norad_id": 31743, "name": "FENGYUN 1C DEB", "group": "fengyun-1c-debris", "lat": -48.53918661337091, "lon": -77.47087692992719, "alt_km": 791.3294519055689, "timestamp": "2025-12-10T05:46:14.106965+00:00", "meta": {"OBJECT_NAME": "FENGYUN 1C DEB", "OBJECT_ID": "1999-025CES", "EPOCH": "2025-12-07T14:49:21.254304", "MEAN_MOTION": 14.31229698, "ECCENTRICITY": 0.00374652, "INCLINATION": 99.1418, "RA_OF_ASC_NODE": 269.2695, "ARG_OF_PERICENTER": 234.4051, "MEAN_ANOMALY": 249.3126, "EPHEMERIS_TYPE": 0, "CLASSIFICATION_TYPE": "U", "NORAD_CAT_ID": 31743, "ELEMENT_SET_NO": 999, "REV_AT_EPOCH": 95567, "BSTAR": 0.0029097178, "MEAN_MOTION_DOT": 7.709e-05, "MEAN_MOTION_DDOT": 0}, "tle": {"line1": "1 31743U 99025CES 25341.61760711  .00007709  00000+0  29097-2 0  9998", "line2": "2 31743  99.1418 269.2695 0037465 234.4051 249.3126 14.31229698955679"}}, "geometry": {"type": "Point", "coordinates": [-77.47087692992719, -48.53918661337091]}}, {"type": "Feature", "properties": {"norad_id": 31744, "name": "FENGYUN 1C DEB", "group": "fengyun-1c-debris", "lat": 35.28219583660177, "lon": 88.43292814657745, "alt_km": 614.5504495550949, "timestamp": "2025-12-10T05:46:14.106975+00:00", "meta": {"OBJECT_NAME": "FENGYUN 1C DEB", "OBJECT_ID": "1999-025CET", "EPOCH": "2025-12-04T13:59:28.410144", "MEAN_MOTION": 14.16423838, "ECCENTRICITY": 0.0316256, "INCLINATION": 99.3063, "RA_OF_ASC_NODE": 89.1727, "ARG_OF_PERICENTER": 67.4972, "MEAN_ANOMALY": 295.9356, "EPHEMERIS_TYPE": 0, "CLASSIFICATION_TYPE": "U", "NORAD_CAT_ID": 31744, "ELEMENT_SET_NO": 999, "REV_AT_EPOCH": 94499, "BSTAR": 0.0032306, "MEAN_MOTION_DOT": 0.00010446, "MEAN_MOTION_DDOT": 0}, "tle": {"line1": "1 31744U 99025CET 25338.58296771  .00010446  00000+0  32306-2 0  9990", "line2": "2 31744  99.3063  89.1727 0316256  67.4972 295.9356 14.16423838944997"}}, "geometry": {"type": "Point", "coordinates": [88.43292814657745, 35.28219583660177]}}, {"type": "Feature", "properties": {"norad_id": 31746, "name": "FENGYUN 1C DEB", "group": "fengyun-1c-debris", "lat": -69.09441094838726, "lon": 129.96661804221338, "alt_km": 643.2972774048967, "timestamp": "2025-12-10T05:46:14.106985+00:00", "meta": {"OBJECT_NAME": "FENGYUN 1C DEB", "OBJECT_ID": "1999-025CEV", "EPOCH": "2025-12-08T13:25:49.648224", "MEAN_MOTION": 14.76434428, "ECCENTRICITY": 0.0023745, "INCLINATION": 98.5888, "RA_OF_ASC_NODE": 104.8721, "ARG_OF_PERICENTER": 218.9091, "MEAN_ANOMALY": 141.0408, "EPHEMERIS_TYPE": 0, "CLASSIFICATION_TYPE": "U", "NORAD_CAT_ID": 31746, "ELEMENT_SET_NO": 999, "REV_AT_EPOCH": 96966, "BSTAR": 0.0049017, "MEAN_MOTION_DOT": 0.00034355, "MEAN_MOTION_DDOT": 0}, "tle": {"line1": "1 31746U 99025CEV 25342.55960241  .00034355  00000+0  49017-2 0  9996", "line2": "2 31746  98.5888 104.8721 0023745 218.9091 141.0408 14.76434428969660"}}, "geometry": {"type": "Point", "coordinates": [129.96661804221338, -69.09441094838726]}}, {"type": "Feature", "properties": {"norad_id": 31752, "name": "FENGYUN 1C DEB", "group": "fengyun-1c-debris", "lat": -39.777719899062966, "lon": -130.47369110349285, "alt_km": 1049.4432230607827, "timestamp": "2025-12-10T05:46:14.106995+00:00", "meta": {"OBJECT_NAME": "FENGYUN 1C DEB", "OBJECT_ID": "1999-025CFB", "EPOCH": "2025-11-28T11:42:46.096128", "MEAN_MOTION": 13.92945252, "ECCENTRICITY": 0.0356614, "INCLINATION": 98.9794, "RA_OF_ASC_NODE": 45.6633, "ARG_OF_PERICENTER": 12.9266, "MEAN_ANOMALY": 348.0748, "EPHEMERIS_TYPE": 0, "CLASSIFICATION_TYPE": "U", "NORAD_CAT_ID": 31752, "ELEMENT_SET_NO": 999, "REV_AT_EPOCH": 93392, "BSTAR": 0.0012622162, "MEAN_MOTION_DOT": 2.723e-05, "MEAN_MOTION_DDOT": 0}, "tle": {"line1": "1 31752U 99025CFB 25332.48803352  .00002723  00000+0  12622-2 0  9999", "line2": "2 31752  98.9794  45.6633 0356614  12.9266 348.0748 13.92945252933926"}}, "geometry": {"type": "Point", "coordinates": [-130.47369110349285, -39.777719899062966]}}]}